[
    {
        "Altitude(m)": 604983.052933539,
        "Argument of Periapsis(deg)": 0.0,
        "Eccentricity": 0.0,
        "Inclination(deg)": 60.0,
        "Latitude(deg)": -0.0926181455526869,
        "Longitude(deg)": 175.08391621520215,
        "Mean Anomaly(deg)": 180.0,
        "RAAN(deg)": 95.0,
        "Satellite Name": "Test1 429",
        "Satellite Number": 429,
        "Semi-Major Axis(m)": 6980739.136638005,
        "Time(s)": 0
    },
    {
        "Altitude(m)": 605055.332190155,
        "Argument of Periapsis(deg)": 0.00010418945913296404,
        "Eccentricity": 0.0,
        "Inclination(deg)": 60.0,
        "Latitude(deg)": -0.6330285643960175,
        "Longitude(deg)": 175.35204004127212,
        "Mean Anomaly(deg)": 180.62010614546185,
        "RAAN(deg)": 94.99957995086027,
        "Satellite Name": "Test1 429",
        "Satellite Number": 429,
        "Semi-Major Axis(m)": 6980739.136638005,
        "Time(s)": 10
    }
]